<?xml version="1.0" encoding="UTF-8"?>
<gpx version="1.1" creator="MetroContentPipeline"
  xmlns="http://www.topografix.com/GPX/1/1">
  <wpt lat="35.6590617" lon="139.7024251"><name>Shibuya</name></wpt>
  <wpt lat="35.6650556" lon="139.7124195"><name>Omote-sando</name></wpt>
  <wpt lat="35.6705551" lon="139.7178217"><name>Gaiemmae</name></wpt>
  <wpt lat="35.6726745" lon="139.7239341"><name>Aoyama-itchome</name></wpt>
  <wpt lat="35.6763066" lon="139.7374601"><name>Akasaka-mitsuke</name></wpt>
  <wpt lat="35.6715818" lon="139.742043"><name>Tameike-sanno</name></wpt>
  <wpt lat="35.67015" lon="139.750011"><name>Toranomon</name></wpt>
  <wpt lat="35.6672291" lon="139.7588763"><name>Shimbashi</name></wpt>
  <wpt lat="35.6714902" lon="139.7652566"><name>Ginza</name></wpt>
  <wpt lat="35.6767641" lon="139.7700459"><name>Kyobashi</name></wpt>
  <wpt lat="35.682087" lon="139.7733413"><name>Nihombashi</name></wpt>
  <wpt lat="35.6870749" lon="139.7735518"><name>Mitsukoshimae</name></wpt>
  <wpt lat="35.6937035" lon="139.7708227"><name>Kanda</name></wpt>
  <wpt lat="35.7029435" lon="139.7716554"><name>Suehirocho</name></wpt>
  <wpt lat="35.7078315" lon="139.7729685"><name>Ueno-hirokoji</name></wpt>
  <wpt lat="35.7117224" lon="139.776143"><name>Ueno</name></wpt>
  <wpt lat="35.7114032" lon="139.7826812"><name>Inaricho</name></wpt>
  <wpt lat="35.7099006" lon="139.7907726"><name>Tawaramachi</name></wpt>
  <wpt lat="35.7108521" lon="139.7978001"><name>Asakusa</name></wpt>
  <trk>
    <name>Tokyo Metro Ginza Line (Shibuya to Asakusa)</name>
    <trkseg>
      <trkpt lat="35.6590617" lon="139.7024251"></trkpt>
      <trkpt lat="35.65915" lon="139.7027445"></trkpt>
      <trkpt lat="35.6591987" lon="139.7029287"></trkpt>
      <trkpt lat="35.6592411" lon="139.7030945"></trkpt>
      <trkpt lat="35.6592946" lon="139.7033231"></trkpt>
      <trkpt lat="35.6594059" lon="139.7037287"></trkpt>
      <trkpt lat="35.6595198" lon="139.7041326"></trkpt>
      <trkpt lat="35.6596648" lon="139.7046526"></trkpt>
      <trkpt lat="35.659752" lon="139.7049523"></trkpt>
      <trkpt lat="35.6597837" lon="139.70505"></trkpt>
      <trkpt lat="35.659816" lon="139.7051312"></trkpt>
      <trkpt lat="35.6599256" lon="139.7053899"></trkpt>
      <trkpt lat="35.6600856" lon="139.7056947"></trkpt>
      <trkpt lat="35.6604368" lon="139.7063279"></trkpt>
      <trkpt lat="35.6616526" lon="139.708221"></trkpt>
      <trkpt lat="35.6628676" lon="139.7101934"></trkpt>
      <trkpt lat="35.663036" lon="139.7104304"></trkpt>
      <trkpt lat="35.6631452" lon="139.7106019"></trkpt>
      <trkpt lat="35.663619" lon="139.7111234"></trkpt>
      <trkpt lat="35.6644514" lon="139.7118576"></trkpt>
      <trkpt lat="35.6645599" lon="139.7119689"></trkpt>
      <trkpt lat="35.6647278" lon="139.7121209"></trkpt>
      <trkpt lat="35.6650556" lon="139.7124195"></trkpt>
      <trkpt lat="35.665447" lon="139.7127709"></trkpt>
      <trkpt lat="35.6659352" lon="139.713209"></trkpt>
      <trkpt lat="35.6659543" lon="139.7132244"></trkpt>
      <trkpt lat="35.6677668" lon="139.7148505"></trkpt>
      <trkpt lat="35.6687491" lon="139.7157433"></trkpt>
      <trkpt lat="35.6692459" lon="139.7161591"></trkpt>
      <trkpt lat="35.6697337" lon="139.7166036"></trkpt>
      <trkpt lat="35.6699141" lon="139.7167496"></trkpt>
      <trkpt lat="35.6701448" lon="139.716981"></trkpt>
      <trkpt lat="35.6703584" lon="139.7173034"></trkpt>
      <trkpt lat="35.6705551" lon="139.7178217"></trkpt>
      <trkpt lat="35.6708663" lon="139.7187314"></trkpt>
      <trkpt lat="35.6711757" lon="139.7196325"></trkpt>
      <trkpt lat="35.6714524" lon="139.7204265"></trkpt>
      <trkpt lat="35.6717151" lon="139.7211954"></trkpt>
      <trkpt lat="35.6720537" lon="139.7221564"></trkpt>
      <trkpt lat="35.672398" lon="139.7231541"></trkpt>
      <trkpt lat="35.6726745" lon="139.7239341"></trkpt>
      <trkpt lat="35.6728887" lon="139.7246373"></trkpt>
      <trkpt lat="35.6731031" lon="139.725342"></trkpt>
      <trkpt lat="35.6734141" lon="139.726367"></trkpt>
      <trkpt lat="35.6735786" lon="139.7269316"></trkpt>
      <trkpt lat="35.6736887" lon="139.7272938"></trkpt>
      <trkpt lat="35.6737978" lon="139.727625"></trkpt>
      <trkpt lat="35.6739302" lon="139.7279694"></trkpt>
      <trkpt lat="35.6740671" lon="139.7283055"></trkpt>
      <trkpt lat="35.6742108" lon="139.7286496"></trkpt>
      <trkpt lat="35.6743434" lon="139.7289578"></trkpt>
      <trkpt lat="35.674487" lon="139.7293108"></trkpt>
      <trkpt lat="35.6745747" lon="139.7296649"></trkpt>
      <trkpt lat="35.6746633" lon="139.7304122"></trkpt>
      <trkpt lat="35.674712" lon="139.7307823"></trkpt>
      <trkpt lat="35.674749" lon="139.730948"></trkpt>
      <trkpt lat="35.6748078" lon="139.7311304"></trkpt>
      <trkpt lat="35.6748669" lon="139.7312847"></trkpt>
      <trkpt lat="35.6749579" lon="139.7314537"></trkpt>
      <trkpt lat="35.6750676" lon="139.7316119"></trkpt>
      <trkpt lat="35.6762851" lon="139.7336109"></trkpt>
      <trkpt lat="35.6767997" lon="139.7344403"></trkpt>
      <trkpt lat="35.6771328" lon="139.7350689"></trkpt>
      <trkpt lat="35.6771924" lon="139.7352742"></trkpt>
      <trkpt lat="35.6772314" lon="139.735437"></trkpt>
      <trkpt lat="35.6772514" lon="139.735597"></trkpt>
      <trkpt lat="35.6772626" lon="139.735796"></trkpt>
      <trkpt lat="35.6772515" lon="139.7360185"></trkpt>
      <trkpt lat="35.6771855" lon="139.7363236"></trkpt>
      <trkpt lat="35.6771157" lon="139.7365255"></trkpt>
      <trkpt lat="35.6770497" lon="139.736683"></trkpt>
      <trkpt lat="35.6769609" lon="139.7368296"></trkpt>
      <trkpt lat="35.6768474" lon="139.7369941"></trkpt>
      <trkpt lat="35.6767347" lon="139.7371124"></trkpt>
      <trkpt lat="35.6765654" lon="139.7372597"></trkpt>
      <trkpt lat="35.6765007" lon="139.7373104"></trkpt>
      <trkpt lat="35.6763066" lon="139.7374601"></trkpt>
      <trkpt lat="35.6761204" lon="139.7375937"></trkpt>
      <trkpt lat="35.6759185" lon="139.7377522"></trkpt>
      <trkpt lat="35.6756751" lon="139.7379272"></trkpt>
      <trkpt lat="35.6755659" lon="139.7380056"></trkpt>
      <trkpt lat="35.6754372" lon="139.7381034"></trkpt>
      <trkpt lat="35.675154" lon="139.738251"></trkpt>
      <trkpt lat="35.6748691" lon="139.7383538"></trkpt>
      <trkpt lat="35.6745728" lon="139.7384449"></trkpt>
      <trkpt lat="35.674275" lon="139.7385533"></trkpt>
      <trkpt lat="35.6739831" lon="139.738675"></trkpt>
      <trkpt lat="35.6737291" lon="139.7388456"></trkpt>
      <trkpt lat="35.6734847" lon="139.7390563"></trkpt>
      <trkpt lat="35.6732706" lon="139.7393254"></trkpt>
      <trkpt lat="35.673073" lon="139.7396217"></trkpt>
      <trkpt lat="35.6728303" lon="139.7399989"></trkpt>
      <trkpt lat="35.6726294" lon="139.7403217"></trkpt>
      <trkpt lat="35.6724521" lon="139.7406086"></trkpt>
      <trkpt lat="35.6722876" lon="139.7409144"></trkpt>
      <trkpt lat="35.6721483" lon="139.7411713"></trkpt>
      <trkpt lat="35.6718937" lon="139.7415556"></trkpt>
      <trkpt lat="35.6715818" lon="139.742043"></trkpt>
      <trkpt lat="35.6712839" lon="139.7425219"></trkpt>
      <trkpt lat="35.6711248" lon="139.7427871"></trkpt>
      <trkpt lat="35.6710246" lon="139.7430455"></trkpt>
      <trkpt lat="35.6709701" lon="139.7432509"></trkpt>
      <trkpt lat="35.6709267" lon="139.7434178"></trkpt>
      <trkpt lat="35.6708844" lon="139.743598"></trkpt>
      <trkpt lat="35.6708517" lon="139.743788"></trkpt>
      <trkpt lat="35.6707983" lon="139.74396"></trkpt>
      <trkpt lat="35.6707351" lon="139.7441841"></trkpt>
      <trkpt lat="35.6707099" lon="139.7442678"></trkpt>
      <trkpt lat="35.6706688" lon="139.744461"></trkpt>
      <trkpt lat="35.6706406" lon="139.7446319"></trkpt>
      <trkpt lat="35.6706001" lon="139.7448584"></trkpt>
      <trkpt lat="35.6705662" lon="139.7450119"></trkpt>
      <trkpt lat="35.6705239" lon="139.7452202"></trkpt>
      <trkpt lat="35.6704965" lon="139.7453696"></trkpt>
      <trkpt lat="35.6704524" lon="139.7455667"></trkpt>
      <trkpt lat="35.6704041" lon="139.7457219"></trkpt>
      <trkpt lat="35.6703509" lon="139.7459186"></trkpt>
      <trkpt lat="35.6703051" lon="139.7460769"></trkpt>
      <trkpt lat="35.6702531" lon="139.7462663"></trkpt>
      <trkpt lat="35.6702123" lon="139.7464394"></trkpt>
      <trkpt lat="35.6701812" lon="139.7466398"></trkpt>
      <trkpt lat="35.6701684" lon="139.7467924"></trkpt>
      <trkpt lat="35.670163" lon="139.7469837"></trkpt>
      <trkpt lat="35.6701619" lon="139.74715"></trkpt>
      <trkpt lat="35.6701813" lon="139.7473737"></trkpt>
      <trkpt lat="35.6702017" lon="139.7475468"></trkpt>
      <trkpt lat="35.6702426" lon="139.7477511"></trkpt>
      <trkpt lat="35.6703163" lon="139.7480871"></trkpt>
      <trkpt lat="35.670372" lon="139.7482793"></trkpt>
      <trkpt lat="35.6704043" lon="139.7484398"></trkpt>
      <trkpt lat="35.6704287" lon="139.7486387"></trkpt>
      <trkpt lat="35.6704387" lon="139.7488173"></trkpt>
      <trkpt lat="35.6704305" lon="139.7489932"></trkpt>
      <trkpt lat="35.6704286" lon="139.7492188"></trkpt>
      <trkpt lat="35.67015" lon="139.750011"></trkpt>
      <trkpt lat="35.67001" lon="139.7504465"></trkpt>
      <trkpt lat="35.6696977" lon="139.7513208"></trkpt>
      <trkpt lat="35.6683839" lon="139.7554654"></trkpt>
      <trkpt lat="35.6683208" lon="139.7556773"></trkpt>
      <trkpt lat="35.6682794" lon="139.7558355"></trkpt>
      <trkpt lat="35.6682293" lon="139.7560716"></trkpt>
      <trkpt lat="35.6681857" lon="139.7562727"></trkpt>
      <trkpt lat="35.6681552" lon="139.7563801"></trkpt>
      <trkpt lat="35.6678545" lon="139.7572892"></trkpt>
      <trkpt lat="35.6676972" lon="139.7577436"></trkpt>
      <trkpt lat="35.6676366" lon="139.7578981"></trkpt>
      <trkpt lat="35.667566" lon="139.7580343"></trkpt>
      <trkpt lat="35.6674925" lon="139.7581922"></trkpt>
      <trkpt lat="35.6674062" lon="139.75839"></trkpt>
      <trkpt lat="35.6672291" lon="139.7588763"></trkpt>
      <trkpt lat="35.6670693" lon="139.7593551"></trkpt>
      <trkpt lat="35.6669262" lon="139.7597542"></trkpt>
      <trkpt lat="35.6669044" lon="139.7600976"></trkpt>
      <trkpt lat="35.6669436" lon="139.7604543"></trkpt>
      <trkpt lat="35.6670842" lon="139.7607507"></trkpt>
      <trkpt lat="35.6671702" lon="139.7608862"></trkpt>
      <trkpt lat="35.6672596" lon="139.76098"></trkpt>
      <trkpt lat="35.6674426" lon="139.7611356"></trkpt>
      <trkpt lat="35.6680179" lon="139.7616506"></trkpt>
      <trkpt lat="35.67063" lon="139.7643844"></trkpt>
      <trkpt lat="35.6708266" lon="139.7645903"></trkpt>
      <trkpt lat="35.670928" lon="139.7646935"></trkpt>
      <trkpt lat="35.6710783" lon="139.7648384"></trkpt>
      <trkpt lat="35.6711502" lon="139.7649069"></trkpt>
      <trkpt lat="35.6714902" lon="139.7652566"></trkpt>
      <trkpt lat="35.6717059" lon="139.7654754"></trkpt>
      <trkpt lat="35.6718464" lon="139.7656484"></trkpt>
      <trkpt lat="35.6719802" lon="139.765804"></trkpt>
      <trkpt lat="35.6743587" lon="139.7683293"></trkpt>
      <trkpt lat="35.6761345" lon="139.7696677"></trkpt>
      <trkpt lat="35.6767641" lon="139.7700459"></trkpt>
      <trkpt lat="35.6772889" lon="139.7703928"></trkpt>
      <trkpt lat="35.6790113" lon="139.7714452"></trkpt>
      <trkpt lat="35.6815778" lon="139.7730243"></trkpt>
      <trkpt lat="35.682087" lon="139.7733413"></trkpt>
      <trkpt lat="35.68251" lon="139.7736184"></trkpt>
      <trkpt lat="35.6828275" lon="139.7738613"></trkpt>
      <trkpt lat="35.6829513" lon="139.7739432"></trkpt>
      <trkpt lat="35.6830676" lon="139.7740061"></trkpt>
      <trkpt lat="35.6831775" lon="139.7740475"></trkpt>
      <trkpt lat="35.683287" lon="139.7740762"></trkpt>
      <trkpt lat="35.6834031" lon="139.7740938"></trkpt>
      <trkpt lat="35.6838088" lon="139.7741111"></trkpt>
      <trkpt lat="35.6839353" lon="139.7741223"></trkpt>
      <trkpt lat="35.6840584" lon="139.7741529"></trkpt>
      <trkpt lat="35.6841928" lon="139.7741975"></trkpt>
      <trkpt lat="35.684497" lon="139.7743244"></trkpt>
      <trkpt lat="35.6847792" lon="139.7744039"></trkpt>
      <trkpt lat="35.6849953" lon="139.7744071"></trkpt>
      <trkpt lat="35.6852022" lon="139.7743589"></trkpt>
      <trkpt lat="35.6860017" lon="139.7740516"></trkpt>
      <trkpt lat="35.6865257" lon="139.7737902"></trkpt>
      <trkpt lat="35.6870749" lon="139.7735518"></trkpt>
      <trkpt lat="35.6876533" lon="139.7733189"></trkpt>
      <trkpt lat="35.6881257" lon="139.7731556"></trkpt>
      <trkpt lat="35.6882984" lon="139.773084"></trkpt>
      <trkpt lat="35.6918156" lon="139.7716264"></trkpt>
      <trkpt lat="35.6927906" lon="139.7711423"></trkpt>
      <trkpt lat="35.693213" lon="139.7710061"></trkpt>
      <trkpt lat="35.6937035" lon="139.7708227"></trkpt>
      <trkpt lat="35.6940882" lon="139.7706916"></trkpt>
      <trkpt lat="35.6943034" lon="139.7706191"></trkpt>
      <trkpt lat="35.694523" lon="139.7705332"></trkpt>
      <trkpt lat="35.694905" lon="139.7703838"></trkpt>
      <trkpt lat="35.6950316" lon="139.7703408"></trkpt>
      <trkpt lat="35.6952548" lon="139.7703013"></trkpt>
      <trkpt lat="35.6954452" lon="139.7703006"></trkpt>
      <trkpt lat="35.6956761" lon="139.7703376"></trkpt>
      <trkpt lat="35.69577" lon="139.7703651"></trkpt>
      <trkpt lat="35.6959057" lon="139.7704109"></trkpt>
      <trkpt lat="35.6963573" lon="139.770564"></trkpt>
      <trkpt lat="35.6972472" lon="139.7709162"></trkpt>
      <trkpt lat="35.6977034" lon="139.7710756"></trkpt>
      <trkpt lat="35.6980046" lon="139.7711401"></trkpt>
      <trkpt lat="35.7000301" lon="139.7713254"></trkpt>
      <trkpt lat="35.702504" lon="139.7715939"></trkpt>
      <trkpt lat="35.7029435" lon="139.7716554"></trkpt>
      <trkpt lat="35.7034661" lon="139.771714"></trkpt>
      <trkpt lat="35.7051001" lon="139.7718992"></trkpt>
      <trkpt lat="35.7052978" lon="139.7719171"></trkpt>
      <trkpt lat="35.7055517" lon="139.7719823"></trkpt>
      <trkpt lat="35.7058707" lon="139.7720919"></trkpt>
      <trkpt lat="35.7067791" lon="139.7726336"></trkpt>
      <trkpt lat="35.7070725" lon="139.7727638"></trkpt>
      <trkpt lat="35.7073543" lon="139.7728656"></trkpt>
      <trkpt lat="35.7075317" lon="139.7729092"></trkpt>
      <trkpt lat="35.7078315" lon="139.7729685"></trkpt>
      <trkpt lat="35.7079479" lon="139.7729923"></trkpt>
      <trkpt lat="35.7087525" lon="139.7731633"></trkpt>
      <trkpt lat="35.7091946" lon="139.7732554"></trkpt>
      <trkpt lat="35.7099432" lon="139.7734281"></trkpt>
      <trkpt lat="35.7105333" lon="139.7736713"></trkpt>
      <trkpt lat="35.7110996" lon="139.7740012"></trkpt>
      <trkpt lat="35.7112032" lon="139.7740645"></trkpt>
      <trkpt lat="35.7113362" lon="139.7741974"></trkpt>
      <trkpt lat="35.7114388" lon="139.7743478"></trkpt>
      <trkpt lat="35.7115249" lon="139.7745232"></trkpt>
      <trkpt lat="35.7115741" lon="139.7746982"></trkpt>
      <trkpt lat="35.7115968" lon="139.7750304"></trkpt>
      <trkpt lat="35.7115947" lon="139.7753522"></trkpt>
      <trkpt lat="35.7116152" lon="139.7756381"></trkpt>
      <trkpt lat="35.711647" lon="139.7758085"></trkpt>
      <trkpt lat="35.7116809" lon="139.7759986"></trkpt>
      <trkpt lat="35.7117224" lon="139.776143"></trkpt>
      <trkpt lat="35.7119367" lon="139.7766206"></trkpt>
      <trkpt lat="35.7119746" lon="139.7767051"></trkpt>
      <trkpt lat="35.7120586" lon="139.7768739"></trkpt>
      <trkpt lat="35.712086" lon="139.7769175"></trkpt>
      <trkpt lat="35.7121336" lon="139.7770198"></trkpt>
      <trkpt lat="35.7122026" lon="139.7771949"></trkpt>
      <trkpt lat="35.7122588" lon="139.777381"></trkpt>
      <trkpt lat="35.7122796" lon="139.7775923"></trkpt>
      <trkpt lat="35.7122839" lon="139.7777277"></trkpt>
      <trkpt lat="35.7122694" lon="139.7778772"></trkpt>
      <trkpt lat="35.7122459" lon="139.7780093"></trkpt>
      <trkpt lat="35.7118679" lon="139.7801346"></trkpt>
      <trkpt lat="35.7118465" lon="139.7802517"></trkpt>
      <trkpt lat="35.7114032" lon="139.7826812"></trkpt>
      <trkpt lat="35.7110654" lon="139.7845829"></trkpt>
      <trkpt lat="35.7103935" lon="139.7882634"></trkpt>
      <trkpt lat="35.7100174" lon="139.7901803"></trkpt>
      <trkpt lat="35.7099006" lon="139.7907726"></trkpt>
      <trkpt lat="35.709761" lon="139.7912984"></trkpt>
      <trkpt lat="35.7093535" lon="139.7926106"></trkpt>
      <trkpt lat="35.7092041" lon="139.7931227"></trkpt>
      <trkpt lat="35.7090948" lon="139.7936983"></trkpt>
      <trkpt lat="35.7089037" lon="139.7950998"></trkpt>
      <trkpt lat="35.7088681" lon="139.795471"></trkpt>
      <trkpt lat="35.7088733" lon="139.7957016"></trkpt>
      <trkpt lat="35.7089108" lon="139.7959332"></trkpt>
      <trkpt lat="35.7089613" lon="139.7961327"></trkpt>
      <trkpt lat="35.7090367" lon="139.7963216"></trkpt>
      <trkpt lat="35.7091989" lon="139.7966052"></trkpt>
      <trkpt lat="35.7094325" lon="139.7968682"></trkpt>
      <trkpt lat="35.7096986" lon="139.7970558"></trkpt>
      <trkpt lat="35.7098095" lon="139.7971302"></trkpt>
      <trkpt lat="35.7100119" lon="139.7972614"></trkpt>
      <trkpt lat="35.7100689" lon="139.7972951"></trkpt>
      <trkpt lat="35.7108521" lon="139.7978001"></trkpt>
      <trkpt lat="35.7109413" lon="139.7978631"></trkpt>
      <trkpt lat="35.7110404" lon="139.7979382"></trkpt>
      <trkpt lat="35.7112081" lon="139.7980602"></trkpt>
      <trkpt lat="35.7115435" lon="139.7983324"></trkpt>
      <trkpt lat="35.7117569" lon="139.7985202"></trkpt>
    </trkseg>
  </trk>
</gpx>